HAWK-5A                 
1 52757U 22057AB  26178.16928229  .00020988  00000+0  35332-3 0  9990
2 52757  97.6611 337.6641 0004821  45.8178 314.3469 15.51735642227893
HAWK-6B                 
1 55324U 23011A   26178.01925231  .00004760  00000+0  20616-3 0  9997
2 55324  40.4995 294.7226 0001350 106.4232 253.6726 15.23016658189344
HAWK-6C                 
1 55326U 23011C   26178.01862191  .00004677  00000+0  20276-3 0  9993
2 55326  40.4978 291.5638 0001989  81.8306 278.2729 15.23009964189354
HAWK-6A                 
1 55327U 23011D   26178.01865760  .00004839  00000+0  20946-3 0  9993
2 55327  40.4992 293.1892 0001576  76.0949 284.0036 15.23014894189356
HAWK-7A                 
1 56191U 23054P   26178.19933297  .00005857  00000+0  22060-3 0  9990
2 56191  97.2696  65.2823 0003497  34.2908 325.8557 15.27460883178553
HAWK-7B                 
1 56193U 23054R   26178.26477166  .00005822  00000+0  21931-3 0  9996
2 56193  97.2724  63.6137 0003115  50.3379 309.8135 15.27460005178566
HAWK-7C                 
1 56200U 23054Y   26178.26465463  .00005722  00000+0  21561-3 0  9990
2 56200  97.2700  64.3791 0002932  40.7643 319.3816 15.27460003178566
